APRIZESAT 2             
1 28366U 04025A   26174.96442039  .00000164  00000+0  64209-4 0  9998
2 28366  98.1020 340.5613 0104594 229.1600 130.0485 14.38038220152619
SAUDICOMSAT 1           
1 28369U 04025D   26175.99077772  .00000339  00000+0  88770-4 0  9996
2 28369  98.5770 186.3327 0032138   1.9874 358.1444 14.55479251165264
SAUDICOMSAT 2           
1 28370U 04025E   26175.99185578  .00000209  00000+0  65595-4 0  9998
2 28370  98.6639 188.4589 0054416 235.3799 124.2256 14.49984951161233
APRIZESAT 1             
1 28372U 04025G   26176.01389847  .00000247  00000+0  72676-4 0  9999
2 28372  98.6302 186.9525 0045476 130.4711 230.0461 14.51780935163044
NANOSAT-1               
1 28493U 04049B   26175.94318639  .00000920  00000+0  12837-3 0  9991
2 28493  98.2285 312.7941 0002705 265.9586  94.1316 14.80173165156590
SAUDICOMSAT 7           
1 31119U 07012C   26176.16609670  .00000465  00000+0  92291-4 0  9993
2 31119  98.3780 150.4611 0055861 170.1476 190.0836 14.66116975 23605
SAUDICOMSAT 6           
1 31121U 07012E   26176.16303725  .00000501  00000+0  10563-3 0  9990
2 31121  98.4101 143.8279 0070612 302.6178  56.8220 14.62566657 21352
SAUDICOMSAT 5           
1 31124U 07012H   26176.19655134  .00000640  00000+0  11839-3 0  9991
2 31124  98.3492 151.2375 0048714 100.1412 260.5292 14.68165928 24771
SAUDICOMSAT 3           
1 31125U 07012J   26174.91858219  .00000713  00000+0  12439-3 0  9997
2 31125  98.3145 150.4814 0039864  32.4873 327.8774 14.70715646 25819
SAUDICOMSAT 4           
1 31127U 07012L   26176.14839904  .00000412  00000+0  85569-4 0  9997
2 31127  98.3986 148.8814 0062292 232.8546 126.6957 14.64518921 22454
APRIZESAT 4             
1 35684U 09041D   26176.14652463  .00000593  00000+0  77388-4 0  9996
2 35684  98.1409 251.6256 0042011 296.5869  63.1042 14.83888656912543
APRIZESAT 3             
1 35686U 09041F   26176.19075926  .00001232  00000+0  11073-3 0  9995
2 35686  98.2074 329.7983 0062622  41.6843 318.9124 14.96265947917575
S-NET D                 
1 43186U 18014G   26174.99334955  .00004138  00000+0  21439-3 0  9990
2 43186  97.5358  79.7411 0008218   8.7119 351.4256 15.16727237459796
S-NET B                 
1 43187U 18014H   26175.20285968  .00004541  00000+0  23506-3 0  9990
2 43187  97.5364  79.9363 0008628   2.2761 357.8510 15.16699503459820
S-NET A                 
1 43188U 18014J   26175.19010870  .00004081  00000+0  21139-3 0  9996
2 43188  97.5375  80.1335 0008546   3.4432 356.6858 15.16737154459820
S-NET C                 
1 43189U 18014K   26175.20677126  .00004585  00000+0  23732-3 0  9992
2 43189  97.5391  80.2262 0009635 354.0800   6.0317 15.16691363458379
SALSAT                  
1 46495U 20068K   26175.99443822  .00007962  00000+0  27767-3 0  9991
2 46495  97.8853 179.5347 0007812 274.8629  85.1718 15.29898993316555
OOV-CUBE (TUBSAT-30)    
1 60240U 24128F   26176.17316428  .00001609  00000+0  13303-3 0  9991
2 60240  61.9924 197.7253 0043642 135.5486 224.9121 15.02799692107313
LPNTSAT-001 (IOD-1)     
1 68408U 26065A   26176.18172845  .00002752  00000+0  13604-3 0  9995
2 68408  97.4014  56.5221 0015810 342.6313  17.4378 15.18575018 13477
